NORAD_CAT_ID,OBJECT_NAME,OBJECT_TYPE,EPOCH,MEAN_MOTION,ECCENTRICITY,INCLINATION,RA_OF_ASC_NODE,ARG_OF_PERICENTER,MEAN_ANOMALY,BSTAR,MEAN_MOTION_DOT,MEAN_MOTION_DDOT,TLE_LINE0,TLE_LINE1,TLE_LINE2,SEMIMAJOR_AXIS,PERIOD,APOGEE,PERIGEE,DECAYED
49443.0,STARLINK-3136,PAYLOAD,2023-05-11 23:35:49,15.08837944,0.0001384,53.215,165.1241,87.9898,272.1252,1.6772e-05,-2.1e-07,0.0,0 STARLINK-3136,1 49443U 21104AM  23131.98321003 -.00000021  00000-0  16772-4 0  9999,2 49443  53.2150 165.1241 0001384  87.9898 272.1252 15.08837944 83019,6917.887,95.438,540.709,538.794,0.0
49443.0,STARLINK-3136,PAYLOAD,2023-05-12 18:40:27,15.08835598,0.0001529,53.217,161.5592,125.2053,234.9083,7.2315e-06,-1.73e-06,0.0,0 STARLINK-3136,1 49443U 21104AM  23132.77809396 -.00000173  00000-0  72315-5 0  9997,2 49443  53.2170 161.5592 0001529 125.2053 234.9083 15.08835598 84203,6917.894,95.438,540.817,538.701,0.0
49443.0,STARLINK-3136,PAYLOAD,2023-05-13 10:34:18,15.08841477,0.0001101,53.2157,158.5791,97.3575,262.7542,7.6192e-05,9.25e-06,0.0,0 STARLINK-3136,1 49443U 21104AM  23133.44048868  .00000925  00000-0  76192-4 0  9991,2 49443  53.2157 158.5791 0001101  97.3575 262.7542 15.08841477 84302,6917.876,95.437,540.503,538.979,0.0
49443.0,STARLINK-3136,PAYLOAD,2023-05-13 18:31:14,15.08835449,0.0001068,53.2155,157.0916,88.5637,271.5478,5.3584e-05,5.65e-06,0.0,0 STARLINK-3136,1 49443U 21104AM  23133.77169381  .00000565  00000-0  53584-4 0  9991,2 49443  53.2155 157.0916 0001068  88.5637 271.5478 15.08835449 83280,6917.894,95.438,540.498,539.02,0.0
49443.0,STARLINK-3136,PAYLOAD,2023-05-14 07:14:19,15.08833739,0.0001098,53.2156,154.7129,90.2311,269.8807,6.7255e-05,7.83e-06,0.0,0 STARLINK-3136,1 49443U 21104AM  23134.30161673  .00000783  00000-0  67255-4 0  9999,2 49443  53.2156 154.7129 0001098  90.2311 269.8807 15.08833739 84437,6917.9,95.438,540.524,539.005,0.0
49443.0,STARLINK-3136,PAYLOAD,2023-05-14 10:25:05,15.08835708,0.0001119,53.2157,154.1182,91.3799,268.7321,8.148e-05,1.009e-05,0.0,0 STARLINK-3136,1 49443U 21104AM  23134.43409558  .00001009  00000-0  81480-4 0  9998,2 49443  53.2157 154.1182 0001119  91.3799 268.7321 15.08835708 83387,6917.894,95.438,540.533,538.984,0.0
49443.0,STARLINK-3136,PAYLOAD,2023-05-14 13:35:52,15.08837508,0.0001147,53.216,153.5227,88.3669,271.7455,7.0652e-05,8.37e-06,0.0,0 STARLINK-3136,1 49443U 21104AM  23134.56657490  .00000837  00000-0  70652-4 0  9999,2 49443  53.2160 153.5227 0001147  88.3669 271.7455 15.08837508 83402,6917.888,95.438,540.546,538.96,0.0
49443.0,STARLINK-3136,PAYLOAD,2023-05-15 07:05:06,15.08843054,0.0001141,53.2158,150.2521,90.416,269.6963,6.0399e-05,6.74e-06,0.0,0 STARLINK-3136,1 49443U 21104AM  23135.29521192  .00000674  00000-0  60399-4 0  9995,2 49443  53.2158 150.2521 0001141  90.4160 269.6963 15.08843054 84587,6917.871,95.437,540.525,538.947,0.0
49443.0,STARLINK-3136,PAYLOAD,2023-05-15 08:40:29,15.08843359,0.0001147,53.2158,149.9548,90.051,270.0613,6.2332e-05,7.04e-06,0.0,0 STARLINK-3136,1 49443U 21104AM  23135.36145158  .00000704  00000-0  62332-4 0  9990,2 49443  53.2158 149.9548 0001147  90.0510 270.0613 15.08843359 83521,6917.87,95.437,540.529,538.942,0.0
49443.0,STARLINK-3136,PAYLOAD,2023-05-15 18:12:48,15.08837202,0.0001101,53.2157,148.1698,87.797,272.3148,2.8011e-05,1.58e-06,0.0,0 STARLINK-3136,1 49443U 21104AM  23135.75889617  .00000158  00000-0  28011-4 0  9997,2 49443  53.2157 148.1698 0001101  87.7970 272.3148 15.08837202 84653,6917.889,95.438,540.516,538.992,0.0
49443.0,STARLINK-3136,PAYLOAD,2023-05-16 06:55:53,15.08834254,0.0001113,53.2154,145.7907,88.4027,271.7092,4.5505e-05,4.36e-06,0.0,0 STARLINK-3136,1 49443U 21104AM  23136.28881917  .00000436  00000-0  45505-4 0  9997,2 49443  53.2154 145.7907 0001113  88.4027 271.7092 15.08834254 83665,6917.898,95.438,540.533,538.993,0.0
49443.0,STARLINK-3136,PAYLOAD,2023-05-16 18:03:35,15.08838795,0.0001123,53.2156,143.7089,88.2638,271.8482,4.4172e-05,4.15e-06,0.0,0 STARLINK-3136,1 49443U 21104AM  23136.75249669  .00000415  00000-0  44172-4 0  9997,2 49443  53.2156 143.7089 0001123  88.2638 271.8482 15.08838795 83739,6917.884,95.438,540.526,538.972,0.0
49443.0,STARLINK-3136,PAYLOAD,2023-05-17 09:57:26,15.0884397,0.0001136,53.2153,140.7358,83.6304,276.4818,4.579e-05,4.41e-06,0.0,0 STARLINK-3136,1 49443U 21104AM  23137.41489256  .00000441  00000-0  45790-4 0  9995,2 49443  53.2153 140.7358 0001136  83.6304 276.4818 15.08843970 84900,6917.868,95.437,540.519,538.947,0.0
49443.0,STARLINK-3136,PAYLOAD,2023-05-18 06:37:27,15.0884099,0.0001138,53.2155,136.8696,83.2094,276.9028,6.8449e-05,8.02e-06,0.0,0 STARLINK-3136,1 49443U 21104AM  23138.27601304  .00000802  00000-0  68449-4 0  9997,2 49443  53.2155 136.8696 0001138  83.2094 276.9028 15.08840990 83969,6917.877,95.437,540.53,538.955,0.0
49443.0,STARLINK-3136,PAYLOAD,2023-05-19 03:17:28,15.08837846,0.0001187,53.2155,133.0041,84.0926,276.0201,-5.2433e-06,-3.71e-06,0.0,0 STARLINK-3136,1 49443U 21104AM  23139.13713808 -.00000371  00000-0 -52433-5 0  9996,2 49443  53.2155 133.0041 0001187  84.0926 276.0201 15.08837846 85163,6917.887,95.438,540.573,538.931,0.0
49443.0,STARLINK-3136,PAYLOAD,2023-05-19 16:00:33,15.08838586,0.0001188,53.2157,130.625,83.8839,276.2288,8.2639e-07,-2.75e-06,0.0,0 STARLINK-3136,1 49443U 21104AM  23139.66705767 -.00000275  00000-0  82639-6 0  9993,2 49443  53.2157 130.6250 0001188  83.8839 276.2288 15.08838586 84170,6917.885,95.438,540.572,538.928,0.0
49443.0,STARLINK-3136,PAYLOAD,2023-05-20 04:43:38,15.08840867,0.0001166,53.2157,128.246,83.4956,276.6169,3.3178e-05,2.4e-06,0.0,0 STARLINK-3136,1 49443U 21104AM  23140.19697578  .00000240  00000-0  33178-4 0  9996,2 49443  53.2157 128.2460 0001166  83.4956 276.6169 15.08840867 85323,6917.878,95.437,540.549,538.936,0.0
49443.0,STARLINK-3136,PAYLOAD,2023-05-20 15:51:20,15.08841744,0.0001185,53.2159,126.1634,79.8651,280.2475,8.0008e-05,9.86e-06,0.0,0 STARLINK-3136,1 49443U 21104AM  23140.66065356  .00000986  00000-0  80008-4 0  9992,2 49443  53.2159 126.1634 0001185  79.8651 280.2475 15.08841744 84322,6917.875,95.437,540.56,538.92,0.0
49443.0,STARLINK-3136,PAYLOAD,2023-05-21 09:20:34,15.08846239,0.0001171,53.2154,122.8936,86.6288,273.4838,0.00011575,1.555e-05,0.0,0 STARLINK-3136,1 49443U 21104AM  23141.38928908  .00001555  00000-0  11575-3 0  9998,2 49443  53.2154 122.8936 0001171  86.6288 273.4838 15.08846239 85504,6917.861,95.437,540.536,538.916,0.0
49443.0,STARLINK-3136,PAYLOAD,2023-05-21 15:42:07,15.08834934,0.0001019,53.2158,121.7032,91.0503,269.0606,9.5726e-06,-1.35e-06,0.0,0 STARLINK-3136,1 49443U 21104AM  23141.65425919 -.00000135  00000-0  95726-5 0  9998,2 49443  53.2158 121.7032 0001019  91.0503 269.0606 15.08834934 85541,6917.896,95.438,540.466,539.056,0.0
49443.0,STARLINK-3136,PAYLOAD,2023-05-21 22:03:40,15.08833614,0.0001656,53.2155,120.5129,86.647,273.4712,-3.1026e-06,-3.37e-06,0.0,0 STARLINK-3136,1 49443U 21104AM  23141.91922375 -.00000337  00000-0 -31026-5 0  9993,2 49443  53.2155 120.5129 0001656  86.6470 273.4712 15.08833614 84519,6917.9,95.438,540.911,538.619,0.0
49443.0,STARLINK-3136,PAYLOAD,2023-05-22 07:36:00,15.08831147,0.0001349,53.2158,118.7292,90.2073,269.9074,-4.3524e-05,-9.8e-06,0.0,0 STARLINK-3136,1 49443U 21104AM  23142.31666790 -.00000980  00000-0 -43524-4 0  9993,2 49443  53.2158 118.7292 0001349  90.2073 269.9074 15.08831147 85646,6917.907,95.438,540.706,538.839,0.0
49443.0,STARLINK-3136,PAYLOAD,2023-05-22 15:32:55,15.088364,0.0001177,53.2155,117.244,100.5672,259.5453,-2.3908e-07,-2.92e-06,0.0,0 STARLINK-3136,1 49443U 21104AM  23142.64786360 -.00000292  00000-0 -23908-6 0  9997,2 49443  53.2155 117.2440 0001177 100.5672 259.5453 15.08836400 85699,6917.891,95.438,540.571,538.942,0.0
49443.0,STARLINK-3136,PAYLOAD,2023-05-22 21:54:27,15.08837486,0.0001192,53.2159,116.0544,97.932,262.1808,3.7192e-05,3.04e-06,0.0,0 STARLINK-3136,1 49443U 21104AM  23142.91282289  .00000304  00000-0  37192-4 0  9998,2 49443  53.2159 116.0544 0001192  97.9320 262.1808 15.08837486 84666,6917.888,95.438,540.578,538.928,0.0
49443.0,STARLINK-3136,PAYLOAD,2023-05-23 07:26:46,15.08844602,0.0001138,53.2161,114.2704,95.5009,264.6113,5.7634e-05,6.3e-06,0.0,0 STARLINK-3136,1 49443U 21104AM  23143.31025883  .00000630  00000-0  57634-4 0  9993,2 49443  53.2161 114.2704 0001138  95.5009 264.6113 15.08844602 85794,6917.866,95.437,540.519,538.944,0.0
49443.0,STARLINK-3136,PAYLOAD,2023-05-23 15:23:42,15.08840918,0.0001197,53.2156,112.7832,97.8938,262.2189,1.8188e-05,2e-08,0.0,0 STARLINK-3136,1 49443U 21104AM  23143.64146216  .00000002  00000-0  18188-4 0  9997,2 49443  53.2156 112.7832 0001197  97.8938 262.2189 15.08840918 84774,6917.878,95.437,540.571,538.915,0.0
49443.0,STARLINK-3136,PAYLOAD,2023-05-24 04:06:47,15.08836436,0.0001193,53.2156,110.4035,101.9967,258.1159,0.00018146,2.601e-05,0.0,0 STARLINK-3136,1 49443U 21104AM  23144.17138402  .00002601  00000-0  18146-3 0  9994,2 49443  53.2156 110.4035 0001193 101.9967 258.1159 15.08836436 85928,6917.891,95.438,540.582,538.931,0.0
49443.0,STARLINK-3136,PAYLOAD,2023-05-25 21:26:49,15.08842454,0.0001147,53.2157,102.6725,95.1308,264.9815,7.067e-05,8.37e-06,0.0,0 STARLINK-3136,1 49443U 21104AM  23145.89362289  .00000837  00000-0  70670-4 0  9996,2 49443  53.2157 102.6725 0001147  95.1308 264.9815 15.08842454 85112,6917.873,95.437,540.531,538.944,0.0
49443.0,STARLINK-3136,PAYLOAD,2023-05-26 03:48:21,15.08844478,0.0001153,53.2158,101.4829,95.5607,264.5517,8.861e-05,1.123e-05,0.0,0 STARLINK-3136,1 49443U 21104AM  23146.15858040  .00001123  00000-0  88610-4 0  9993,2 49443  53.2158 101.4829 0001153  95.5607 264.5517 15.08844478 86224,6917.867,95.437,540.529,538.934,0.0
49443.0,STARLINK-3136,PAYLOAD,2023-05-26 21:17:36,15.08835237,0.0001228,53.2159,98.2133,93.7695,266.3438,4.4973e-05,4.28e-06,0.0,0 STARLINK-3136,1 49443U 21104AM  23146.88722733  .00000428  00000-0  44973-4 0  9993,2 49443  53.2159  98.2133 0001228  93.7695 266.3438 15.08835237 85264,6917.895,95.438,540.609,538.91,0.0
